{
  "norad_id": 58959,
  "name": "RAPTOR2",
  "history": [
    {
      "epoch": "2026-04-15T07:38:45.216960Z",
      "apogee_km": 1006.8542351715905,
      "perigee_km": 988.3293547301919,
      "latitude_deg": -5.0545813656454067e-05,
      "longitude_deg": 13.663273876477318,
      "height_km": 999.3778559004329,
      "semi_major_axis_km": 7375.728794950891,
      "eccentricity": 0.0012558,
      "inclination_deg": 39.9922,
      "raan_deg": 331.8341,
      "arg_perigee_deg": 255.594,
      "mean_anomaly_deg": 104.3412,
      "mean_motion_rev_day": 13.7055148
    },
    {
      "epoch": "2026-04-16T15:07:44.526144Z",
      "apogee_km": 1006.8714735227695,
      "perigee_km": 988.3111907477842,
      "latitude_deg": 2.5061611333477963e-05,
      "longitude_deg": -105.90432217954819,
      "height_km": 998.2611807878783,
      "semi_major_axis_km": 7375.728332135276,
      "eccentricity": 0.0012582,
      "inclination_deg": 39.9921,
      "raan_deg": 325.8065,
      "arg_perigee_deg": 262.6432,
      "mean_anomaly_deg": 97.2885,
      "mean_motion_rev_day": 13.70551609
    },
    {
      "epoch": "2026-04-17T22:36:43.866432Z",
      "apogee_km": 1006.8704703579124,
      "perigee_km": 988.3113687376299,
      "latitude_deg": 1.133134363941153e-05,
      "longitude_deg": 134.52794509678523,
      "height_km": 997.1272042430726,
      "semi_major_axis_km": 7375.727919547771,
      "eccentricity": 0.00125812,
      "inclination_deg": 39.9919,
      "raan_deg": 319.779,
      "arg_perigee_deg": 269.6624,
      "mean_anomaly_deg": 90.2681,
      "mean_motion_rev_day": 13.70551724
    },
    {
      "epoch": "2026-04-18T21:21:00.079200Z",
      "apogee_km": 1006.8678407077578,
      "perigee_km": 988.313460230238,
      "latitude_deg": -6.105014290849472e-06,
      "longitude_deg": 148.17326149912668,
      "height_km": 996.3041479472006,
      "semi_major_axis_km": 7375.727650468997,
      "eccentricity": 0.0012578,
      "inclination_deg": 39.9919,
      "raan_deg": 315.4257,
      "arg_perigee_deg": 274.7503,
      "mean_anomaly_deg": 85.1807,
      "mean_motion_rev_day": 13.70551799
    },
    {
      "epoch": "2026-04-19T20:05:16.306656Z",
      "apogee_km": 1006.8595585727471,
      "perigee_km": 988.3214051198738,
      "latitude_deg": 3.416497473707054e-05,
      "longitude_deg": 161.8186838558927,
      "height_km": 995.4917518965511,
      "semi_major_axis_km": 7375.72748184631,
      "eccentricity": 0.0012567,
      "inclination_deg": 39.9917,
      "raan_deg": 311.0725,
      "arg_perigee_deg": 279.8192,
      "mean_anomaly_deg": 80.1136,
      "mean_motion_rev_day": 13.70551846
    },
    {
      "epoch": "2026-04-20T06:34:56.108064Z",
      "apogee_km": 1006.8550720684643,
      "perigee_km": 988.3257696417922,
      "latitude_deg": -3.3037508626166096e-05,
      "longitude_deg": 1.9624748942533203,
      "height_km": 995.1160434993396,
      "semi_major_axis_km": 7375.727420855128,
      "eccentricity": 0.0012561,
      "inclination_deg": 39.9916,
      "raan_deg": 309.0632,
      "arg_perigee_deg": 282.1916,
      "mean_anomaly_deg": 77.7423,
      "mean_motion_rev_day": 13.70551863
    },
    {
      "epoch": "2026-04-21T19:18:45.440640Z",
      "apogee_km": 1006.8198780953189,
      "perigee_km": 988.3599088263663,
      "latitude_deg": -3.088066952126359e-05,
      "longitude_deg": 162.46605863840796,
      "height_km": 993.8524296271294,
      "semi_major_axis_km": 7375.726893460843,
      "eccentricity": 0.0012514,
      "inclination_deg": 39.9914,
      "raan_deg": 302.0308,
      "arg_perigee_deg": 290.4193,
      "mean_anomaly_deg": 69.5209,
      "mean_motion_rev_day": 13.7055201
    },
    {
      "epoch": "2026-04-21T21:03:42.077376Z",
      "apogee_km": 1006.816870329294,
      "perigee_km": 988.3628017854799,
      "latitude_deg": 3.844320259828068e-05,
      "longitude_deg": 135.82352268265984,
      "height_km": 993.7935301226963,
      "semi_major_axis_km": 7375.726836057387,
      "eccentricity": 0.001251,
      "inclination_deg": 39.9914,
      "raan_deg": 301.696,
      "arg_perigee_deg": 290.8168,
      "mean_anomaly_deg": 69.1239,
      "mean_motion_rev_day": 13.70552026
    },
    {
      "epoch": "2026-04-22T19:47:58.351488Z",
      "apogee_km": 1006.7889005118232,
      "perigee_km": 988.3902980244802,
      "latitude_deg": 1.9319924571638057e-05,
      "longitude_deg": 149.46837839971192,
      "height_km": 993.0537194851526,
      "semi_major_axis_km": 7375.726599268151,
      "eccentricity": 0.00124724,
      "inclination_deg": 39.9912,
      "raan_deg": 297.3425,
      "arg_perigee_deg": 295.9059,
      "mean_anomaly_deg": 64.0402,
      "mean_motion_rev_day": 13.70552092
    },
    {
      "epoch": "2026-04-24T19:01:27.572736Z",
      "apogee_km": 1006.7179146371273,
      "perigee_km": 988.4600425497183,
      "latitude_deg": -2.477119494313497e-06,
      "longitude_deg": 150.11534148267407,
      "height_km": 991.6345933855424,
      "semi_major_axis_km": 7375.725978593423,
      "eccentricity": 0.0012377,
      "inclination_deg": 39.9911,
      "raan_deg": 288.3007,
      "arg_perigee_deg": 306.5664,
      "mean_anomaly_deg": 53.3943,
      "mean_motion_rev_day": 13.70552265
    },
    {
      "epoch": "2026-04-25T19:30:40.514688Z",
      "apogee_km": 1006.6716283554897,
      "perigee_km": 988.5052166398773,
      "latitude_deg": 2.6421609809662798e-05,
      "longitude_deg": 137.11750830902994,
      "height_km": 990.9792559530231,
      "semi_major_axis_km": 7375.725422497683,
      "eccentricity": 0.0012315,
      "inclination_deg": 39.991,
      "raan_deg": 283.6124,
      "arg_perigee_deg": 312.1358,
      "mean_anomaly_deg": 47.8342,
      "mean_motion_rev_day": 13.7055242
    }
  ]
}